{
    "links": {
        "self": "http://www.neowsapp.com/rest/v1/neo/3407363?api_key=iIulBulltgU6a56xZRHN4H3l9WmuAYTsLGpBGhQ2"
    },
    "id": "3407363",
    "neo_reference_id": "3407363",
    "name": "(2008 FE)",
    "designation": "2008 FE",
    "nasa_jpl_url": "http://ssd.jpl.nasa.gov/sbdb.cgi?sstr=3407363",
    "absolute_magnitude_h": 24.1,
    "estimated_diameter": {
        "kilometers": {
            "estimated_diameter_min": 0.040230458,
            "estimated_diameter_max": 0.0899580388
        },
        "meters": {
            "estimated_diameter_min": 40.2304579834,
            "estimated_diameter_max": 89.9580388169
        },
        "miles": {
            "estimated_diameter_min": 0.0249980399,
            "estimated_diameter_max": 0.0558973165
        },
        "feet": {
            "estimated_diameter_min": 131.9896957704,
            "estimated_diameter_max": 295.1379320721
        }
    },
    "is_potentially_hazardous_asteroid": false,
    "close_approach_data": [
        {
            "close_approach_date": "2008-03-28",
            "close_approach_date_full": "2008-Mar-28 07:45",
            "epoch_date_close_approach": 1206690300000,
            "relative_velocity": {
                "kilometers_per_second": "8.9795808693",
                "kilometers_per_hour": "32326.4911293585",
                "miles_per_hour": "20086.4244464617"
            },
            "miss_distance": {
                "astronomical": "0.0832369899",
                "lunar": "32.3791890711",
                "kilometers": "12452076.394251513",
                "miles": "7737361.4851683594"
            },
            "orbiting_body": "Earth"
        }
    ],
    "orbital_data": {
        "orbit_id": "6",
        "orbit_determination_date": "2017-04-06 09:03:56",
        "first_observation_date": "2008-03-26",
        "last_observation_date": "2008-03-27",
        "data_arc_in_days": 1,
        "observations_used": 11,
        "orbit_uncertainty": "9",
        "minimum_orbit_intersection": ".0405941",
        "jupiter_tisserand_invariant": "4.259",
        "epoch_osculation": "2454552.5",
        "eccentricity": ".3560030581136699",
        "semi_major_axis": "1.602172819262826",
        "inclination": "12.79043597064136",
        "ascending_node_longitude": "181.7647474089632",
        "orbital_period": "740.7343189461726",
        "perihelion_distance": "1.03179439597866",
        "perihelion_argument": "348.1754366142594",
        "aphelion_distance": "2.172551242546993",
        "perihelion_time": "2454540.987856619085",
        "mean_anomaly": "5.594950188112671",
        "mean_motion": ".4860042133759437",
        "equinox": "J2000",
        "orbit_class": {
            "orbit_class_type": "AMO",
            "orbit_class_description": "Near-Earth asteroid orbits similar to that of 1221 Amor",
            "orbit_class_range": "1.017 AU < q (perihelion) < 1.3 AU"
        }
    },
    "is_sentry_object": false
}